{
  "type": "FeatureCollection",
  "features": [
    {
      "type": "Feature",
      "properties": {
        "norad_id": 39773,
        "name": "EUTELSAT 3B",
        "group": "eutelsat",
        "lat": -0.018542482424082407,
        "lon": -168.6787079421697,
        "alt_km": 35770.45103164966,
        "timestamp": "2025-12-06T07:31:39.915833+00:00",
        "meta_object_name": "EUTELSAT 3B",
        "meta_object_id": "2014-030A",
        "meta_epoch": "2025-12-05T03:26:17.789280",
        "meta_mean_motion": 1.00271208,
        "meta_eccentricity": 0.00047708,
        "meta_inclination": 0.0638,
        "meta_ra_of_asc_node": 6.529,
        "meta_arg_of_pericenter": 223.3593,
        "meta_mean_anomaly": 258.9859,
        "meta_ephemeris_type": 0,
        "meta_classification_type": "U",
        "meta_norad_cat_id": 39773,
        "meta_element_set_no": 999,
        "meta_rev_at_epoch": 4212,
        "meta_bstar": 0,
        "meta_mean_motion_dot": 3.2e-07,
        "meta_mean_motion_ddot": 0,
        "tle_line1": "1 39773U 14030A   25339.14326145  .00000032  00000+0  00000+0 0  9998",
        "tle_line2": "2 39773   0.0638   6.5290 0004770 223.3593 258.9859  1.00271208 42121"
      },
      "geometry": {
        "type": "Point",
        "coordinates": [
          -168.6787079421697,
          -0.018542482424082407
        ]
      }
    },
    {
      "type": "Feature",
      "properties": {
        "norad_id": 40425,
        "name": "EUTELSAT 115 WEST B",
        "group": "eutelsat",
        "lat": -0.010417808510827568,
        "lon": 73.39576423087611,
        "alt_km": 35783.714464195284,
        "timestamp": "2025-12-06T07:31:39.915845+00:00",
        "meta_object_name": "EUTELSAT 115 WEST B",
        "meta_object_id": "2015-010B",
        "meta_epoch": "2025-12-05T04:42:38.564352",
        "meta_mean_motion": 1.00273302,
        "meta_eccentricity": 4.537e-05,
        "meta_inclination": 0.0143,
        "meta_ra_of_asc_node": 149.4654,
        "meta_arg_of_pericenter": 277.0632,
        "meta_mean_anomaly": 323.5157,
        "meta_ephemeris_type": 0,
        "meta_classification_type": "U",
        "meta_norad_cat_id": 40425,
        "meta_element_set_no": 999,
        "meta_rev_at_epoch": 3944,
        "meta_bstar": 0,
        "meta_mean_motion_dot": -1.3e-07,
        "meta_mean_motion_ddot": 0,
        "tle_line1": "1 40425U 15010B   25339.19627968 -.00000013  00000+0  00000+0 0  9995",
        "tle_line2": "2 40425   0.0143 149.4654 0000453 277.0632 323.5157  1.00273302 39441"
      },
      "geometry": {
        "type": "Point",
        "coordinates": [
          73.39576423087611,
          -0.010417808510827568
        ]
      }
    },
    {
      "type": "Feature",
      "properties": {
        "norad_id": 40875,
        "name": "EUTELSAT 8 WEST B",
        "group": "eutelsat",
        "lat": -0.020620673702679768,
        "lon": -179.7745829399711,
        "alt_km": 35781.70716094191,
        "timestamp": "2025-12-06T07:31:39.915857+00:00",
        "meta_object_name": "EUTELSAT 8 WEST B",
        "meta_object_id": "2015-039B",
        "meta_epoch": "2025-12-05T03:23:10.587264",
        "meta_mean_motion": 1.00271612,
        "meta_eccentricity": 0.00041457,
        "meta_inclination": 0.0649,
        "meta_ra_of_asc_node": 350.9505,
        "meta_arg_of_pericenter": 264.7331,
        "meta_mean_anomaly": 221.3234,
        "meta_ephemeris_type": 0,
        "meta_classification_type": "U",
        "meta_norad_cat_id": 40875,
        "meta_element_set_no": 999,
        "meta_rev_at_epoch": 3771,
        "meta_bstar": 0,
        "meta_mean_motion_dot": -5.3e-07,
        "meta_mean_motion_ddot": 0,
        "tle_line1": "1 40875U 15039B   25339.14109476 -.00000053  00000+0  00000+0 0  9993",
        "tle_line2": "2 40875   0.0649 350.9505 0004145 264.7331 221.3234  1.00271612 37717"
      },
      "geometry": {
        "type": "Point",
        "coordinates": [
          -179.7745829399711,
          -0.020620673702679768
        ]
      }
    },
    {
      "type": "Feature",
      "properties": {
        "norad_id": 41310,
        "name": "EUTELSAT 9B",
        "group": "eutelsat",
        "lat": 0.03966290939504322,
        "lon": -162.80079259521602,
        "alt_km": 35778.36481624705,
        "timestamp": "2025-12-06T07:31:39.915869+00:00",
        "meta_object_name": "EUTELSAT 9B",
        "meta_object_id": "2016-005A",
        "meta_epoch": "2025-12-05T03:28:02.620992",
        "meta_mean_motion": 1.00271858,
        "meta_eccentricity": 0.00049976,
        "meta_inclination": 0.0704,
        "meta_ra_of_asc_node": 75.5846,
        "meta_arg_of_pericenter": 190.7087,
        "meta_mean_anomaly": 228.9131,
        "meta_ephemeris_type": 0,
        "meta_classification_type": "U",
        "meta_norad_cat_id": 41310,
        "meta_element_set_no": 999,
        "meta_rev_at_epoch": 3617,
        "meta_bstar": 0,
        "meta_mean_motion_dot": 7.4e-07,
        "meta_mean_motion_ddot": 0,
        "tle_line1": "1 41310U 16005A   25339.14447478  .00000074  00000+0  00000+0 0  9991",
        "tle_line2": "2 41310   0.0704  75.5846 0004997 190.7087 228.9131  1.00271858 36173"
      },
      "geometry": {
        "type": "Point",
        "coordinates": [
          -162.80079259521602,
          0.03966290939504322
        ]
      }
    },
    {
      "type": "Feature",
      "properties": {
        "norad_id": 41382,
        "name": "EUTELSAT 65 WEST A",
        "group": "eutelsat",
        "lat": 0.05033922281343041,
        "lon": 123.0285779818942,
        "alt_km": 35795.94144524254,
        "timestamp": "2025-12-06T07:31:39.915881+00:00",
        "meta_object_name": "EUTELSAT 65 WEST A",
        "meta_object_id": "2016-014A",
        "meta_epoch": "2025-12-05T06:07:38.867808",
        "meta_mean_motion": 1.00269991,
        "meta_eccentricity": 0.00028669,
        "meta_inclination": 0.0492,
        "meta_ra_of_asc_node": 350.5191,
        "meta_arg_of_pericenter": 272.1741,
        "meta_mean_anomaly": 198.3295,
        "meta_ephemeris_type": 0,
        "meta_classification_type": "U",
        "meta_norad_cat_id": 41382,
        "meta_element_set_no": 999,
        "meta_rev_at_epoch": 3559,
        "meta_bstar": 0,
        "meta_mean_motion_dot": -2.64e-06,
        "meta_mean_motion_ddot": 0,
        "tle_line1": "1 41382U 16014A   25339.25531097 -.00000264  00000+0  00000+0 0  9995",
        "tle_line2": "2 41382   0.0492 350.5191 0002866 272.1741 198.3295  1.00269991 35591"
      },
      "geometry": {
        "type": "Point",
        "coordinates": [
          123.0285779818942,
          0.05033922281343041
        ]
      }
    },
    {
      "type": "Feature",
      "properties": {
        "norad_id": 41589,
        "name": "EUTELSAT 117 WEST B",
        "group": "eutelsat",
        "lat": -0.016724955308122656,
        "lon": 71.24494448071684,
        "alt_km": 35786.02172885828,
        "timestamp": "2025-12-06T07:31:39.915893+00:00",
        "meta_object_name": "EUTELSAT 117 WEST B",
        "meta_object_id": "2016-038B",
        "meta_epoch": "2025-12-04T23:26:32.000928",
        "meta_mean_motion": 1.00268963,
        "meta_eccentricity": 2.521e-05,
        "meta_inclination": 0.0075,
        "meta_ra_of_asc_node": 147.6568,
        "meta_arg_of_pericenter": 325.2322,
        "meta_mean_anomaly": 195.7827,
        "meta_ephemeris_type": 0,
        "meta_classification_type": "U",
        "meta_norad_cat_id": 41589,
        "meta_element_set_no": 999,
        "meta_rev_at_epoch": 3471,
        "meta_bstar": 0,
        "meta_mean_motion_dot": 2e-08,
        "meta_mean_motion_ddot": 0,
        "tle_line1": "1 41589U 16038B   25338.97675927  .00000002  00000+0  00000+0 0  9998",
        "tle_line2": "2 41589   0.0075 147.6568 0000252 325.2322 195.7827  1.00268963 34715"
      },
      "geometry": {
        "type": "Point",
        "coordinates": [
          71.24494448071684,
          -0.016724955308122656
        ]
      }
    },
    {
      "type": "Feature",
      "properties": {
        "norad_id": 42741,
        "name": "EUTELSAT 172B",
        "group": "eutelsat",
        "lat": 0.0013930581399206614,
        "lon": 0.26075557247186215,
        "alt_km": 35786.68401885437,
        "timestamp": "2025-12-06T07:31:39.915905+00:00",
        "meta_object_name": "EUTELSAT 172B",
        "meta_object_id": "2017-029B",
        "meta_epoch": "2025-12-05T05:57:18.318816",
        "meta_mean_motion": 1.00271279,
        "meta_eccentricity": 1.618e-05,
        "meta_inclination": 0.011,
        "meta_ra_of_asc_node": 82.7014,
        "meta_arg_of_pericenter": 139.0449,
        "meta_mean_anomaly": 113.8871,
        "meta_ephemeris_type": 0,
        "meta_classification_type": "U",
        "meta_norad_cat_id": 42741,
        "meta_element_set_no": 999,
        "meta_rev_at_epoch": 3178,
        "meta_bstar": 0,
        "meta_mean_motion_dot": 6e-08,
        "meta_mean_motion_ddot": 0,
        "tle_line1": "1 42741U 17029B   25339.24812869  .00000006  00000+0  00000+0 0  9993",
        "tle_line2": "2 42741   0.0110  82.7014 0000161 139.0449 113.8871  1.00271279 31789"
      },
      "geometry": {
        "type": "Point",
        "coordinates": [
          0.26075557247186215,
          0.0013930581399206614
        ]
      }
    }
  ]
}